{
  "type": "FeatureCollection",
  "features": [
    {
      "type": "Feature",
      "properties": {
        "norad_id": 42988,
        "name": "SKYSAT-C10",
        "group": "resource",
        "lat": 37.06783158223824,
        "lon": -62.1087907069054,
        "alt_km": 464.322977531363,
        "timestamp": "2025-12-07T09:35:09.449594+00:00",
        "meta_object_name": "SKYSAT-C10",
        "meta_object_id": "2017-068B",
        "meta_epoch": "2025-12-06T21:59:32.709984",
        "meta_mean_motion": 15.31874487,
        "meta_eccentricity": 0.00052447,
        "meta_inclination": 97.4261,
        "meta_ra_of_asc_node": 111.7525,
        "meta_arg_of_pericenter": 120.0784,
        "meta_mean_anomaly": 240.0978,
        "meta_ephemeris_type": 0,
        "meta_classification_type": "U",
        "meta_norad_cat_id": 42988,
        "meta_element_set_no": 999,
        "meta_rev_at_epoch": 45290,
        "meta_bstar": 0.00053350906,
        "meta_mean_motion_dot": 0.00016364,
        "meta_mean_motion_ddot": 0,
        "tle_line1": "1 42988U 17068B   25340.91635081  .00016364  00000+0  53351-3 0  9999",
        "tle_line2": "2 42988  97.4261 111.7525 0005244 120.0784 240.0978 15.31874487452909"
      },
      "geometry": {
        "type": "Point",
        "coordinates": [
          -62.1087907069054,
          37.06783158223824
        ]
      }
    },
    {
      "type": "Feature",
      "properties": {
        "norad_id": 42989,
        "name": "SKYSAT-C9",
        "group": "resource",
        "lat": -81.67307389224803,
        "lon": 174.52677005702182,
        "alt_km": 472.95356558065487,
        "timestamp": "2025-12-07T09:35:09.449607+00:00",
        "meta_object_name": "SKYSAT-C9",
        "meta_object_id": "2017-068C",
        "meta_epoch": "2025-12-06T21:27:07.614432",
        "meta_mean_motion": 15.35824035,
        "meta_eccentricity": 0.00106856,
        "meta_inclination": 97.4193,
        "meta_ra_of_asc_node": 111.1031,
        "meta_arg_of_pericenter": 106.7537,
        "meta_mean_anomaly": 253.488,
        "meta_ephemeris_type": 0,
        "meta_classification_type": "U",
        "meta_norad_cat_id": 42989,
        "meta_element_set_no": 999,
        "meta_rev_at_epoch": 45318,
        "meta_bstar": 0.00054617477,
        "meta_mean_motion_dot": 0.00019015,
        "meta_mean_motion_ddot": 0,
        "tle_line1": "1 42989U 17068C   25340.89383813  .00019015  00000+0  54617-3 0  9992",
        "tle_line2": "2 42989  97.4193 111.1031 0010685 106.7537 253.4880 15.35824035453181"
      },
      "geometry": {
        "type": "Point",
        "coordinates": [
          174.52677005702182,
          -81.67307389224803
        ]
      }
    },
    {
      "type": "Feature",
      "properties": {
        "norad_id": 42990,
        "name": "SKYSAT-C8",
        "group": "resource",
        "lat": -54.977197587324355,
        "lon": 122.10740727624409,
        "alt_km": 474.09103646174754,
        "timestamp": "2025-12-07T09:35:09.449618+00:00",
        "meta_object_name": "SKYSAT-C8",
        "meta_object_id": "2017-068D",
        "meta_epoch": "2025-12-06T19:43:36.727968",
        "meta_mean_motion": 15.32726028,
        "meta_eccentricity": 0.00019981,
        "meta_inclination": 97.4284,
        "meta_ra_of_asc_node": 110.7979,
        "meta_arg_of_pericenter": 10.0535,
        "meta_mean_anomaly": 350.0747,
        "meta_ephemeris_type": 0,
        "meta_classification_type": "U",
        "meta_norad_cat_id": 42990,
        "meta_element_set_no": 999,
        "meta_rev_at_epoch": 45280,
        "meta_bstar": 0.00057243078,
        "meta_mean_motion_dot": 0.00018036,
        "meta_mean_motion_ddot": 0,
        "tle_line1": "1 42990U 17068D   25340.82195287  .00018036  00000+0  57243-3 0  9993",
        "tle_line2": "2 42990  97.4284 110.7979 0001998  10.0535 350.0747 15.32726028452806"
      },
      "geometry": {
        "type": "Point",
        "coordinates": [
          122.10740727624409,
          -54.977197587324355
        ]
      }
    },
    {
      "type": "Feature",
      "properties": {
        "norad_id": 42991,
        "name": "SKYSAT-C7",
        "group": "resource",
        "lat": 8.489358546106104,
        "lon": -66.4608834221008,
        "alt_km": 472.05592693371364,
        "timestamp": "2025-12-07T09:35:09.449629+00:00",
        "meta_object_name": "SKYSAT-C7",
        "meta_object_id": "2017-068E",
        "meta_epoch": "2025-12-06T21:52:09.247296",
        "meta_mean_motion": 15.32135202,
        "meta_eccentricity": 0.00078406,
        "meta_inclination": 97.4292,
        "meta_ra_of_asc_node": 111.9334,
        "meta_arg_of_pericenter": 75.1973,
        "meta_mean_anomaly": 285.0137,
        "meta_ephemeris_type": 0,
        "meta_classification_type": "U",
        "meta_norad_cat_id": 42991,
        "meta_element_set_no": 999,
        "meta_rev_at_epoch": 45288,
        "meta_bstar": 0.00054785421,
        "meta_mean_motion_dot": 0.00016954,
        "meta_mean_motion_ddot": 0,
        "tle_line1": "1 42991U 17068E   25340.91121814  .00016954  00000+0  54785-3 0  9994",
        "tle_line2": "2 42991  97.4292 111.9334 0007840  75.1973 285.0137 15.32135202452880"
      },
      "geometry": {
        "type": "Point",
        "coordinates": [
          -66.4608834221008,
          8.489358546106104
        ]
      }
    },
    {
      "type": "Feature",
      "properties": {
        "norad_id": 42992,
        "name": "SKYSAT-C6",
        "group": "resource",
        "lat": -55.25552820842234,
        "lon": 123.71469936420388,
        "alt_km": 482.12427876920174,
        "timestamp": "2025-12-07T09:35:09.449639+00:00",
        "meta_object_name": "SKYSAT-C6",
        "meta_object_id": "2017-068F",
        "meta_epoch": "2025-12-06T22:51:07.405056",
        "meta_mean_motion": 15.31307672,
        "meta_eccentricity": 0.00051954,
        "meta_inclination": 97.4325,
        "meta_ra_of_asc_node": 112.4175,
        "meta_arg_of_pericenter": 98.5499,
        "meta_mean_anomaly": 261.6332,
        "meta_ephemeris_type": 0,
        "meta_classification_type": "U",
        "meta_norad_cat_id": 42992,
        "meta_element_set_no": 999,
        "meta_rev_at_epoch": 45287,
        "meta_bstar": 0.00050598768,
        "meta_mean_motion_dot": 0.00015242,
        "meta_mean_motion_ddot": 0,
        "tle_line1": "1 42992U 17068F   25340.95216904  .00015242  00000+0  50599-3 0  9992",
        "tle_line2": "2 42992  97.4325 112.4175 0005195  98.5499 261.6332 15.31307672452877"
      },
      "geometry": {
        "type": "Point",
        "coordinates": [
          123.71469936420388,
          -55.25552820842234
        ]
      }
    },
    {
      "type": "Feature",
      "properties": {
        "norad_id": 43111,
        "name": "CARTOSAT-2F",
        "group": "resource",
        "lat": -74.06729237999826,
        "lon": 66.3349016933619,
        "alt_km": 515.9815065847606,
        "timestamp": "2025-12-07T09:35:09.449650+00:00",
        "meta_object_name": "CARTOSAT-2F",
        "meta_object_id": "2018-004A",
        "meta_epoch": "2025-12-06T21:16:23.399616",
        "meta_mean_motion": 15.19186599,
        "meta_eccentricity": 6.306e-05,
        "meta_inclination": 97.4323,
        "meta_ra_of_asc_node": 38.6185,
        "meta_arg_of_pericenter": 136.4668,
        "meta_mean_anomaly": 223.6616,
        "meta_ephemeris_type": 0,
        "meta_classification_type": "U",
        "meta_norad_cat_id": 43111,
        "meta_element_set_no": 999,
        "meta_rev_at_epoch": 43813,
        "meta_bstar": 0.00037319444,
        "meta_mean_motion_dot": 7.786e-05,
        "meta_mean_motion_ddot": 0,
        "tle_line1": "1 43111U 18004A   25340.88638194  .00007786  00000+0  37319-3 0  9997",
        "tle_line2": "2 43111  97.4323  38.6185 0000630 136.4668 223.6616 15.19186599438133"
      },
      "geometry": {
        "type": "Point",
        "coordinates": [
          66.3349016933619,
          -74.06729237999826
        ]
      }
    },
    {
      "type": "Feature",
      "properties": {
        "norad_id": 43259,
        "name": "GAOFEN-1 02",
        "group": "resource",
        "lat": 28.239476778279606,
        "lon": -136.4368462176773,
        "alt_km": 639.15087116631,
        "timestamp": "2025-12-07T09:35:09.449660+00:00",
        "meta_object_name": "GAOFEN-1 02",
        "meta_object_id": "2018-031A",
        "meta_epoch": "2025-12-06T23:08:37.095072",
        "meta_mean_motion": 14.76462364,
        "meta_eccentricity": 0.00013996,
        "meta_inclination": 98.0812,
        "meta_ra_of_asc_node": 38.7514,
        "meta_arg_of_pericenter": 235.3042,
        "meta_mean_anomaly": 124.8036,
        "meta_ephemeris_type": 0,
        "meta_classification_type": "U",
        "meta_norad_cat_id": 43259,
        "meta_element_set_no": 999,
        "meta_rev_at_epoch": 41433,
        "meta_bstar": 0.00026978363,
        "meta_mean_motion_dot": 1.826e-05,
        "meta_mean_motion_ddot": 0,
        "tle_line1": "1 43259U 18031A   25340.96431823  .00001826  00000+0  26978-3 0  9997",
        "tle_line2": "2 43259  98.0812  38.7514 0001399 235.3042 124.8036 14.76462364414334"
      },
      "geometry": {
        "type": "Point",
        "coordinates": [
          -136.4368462176773,
          28.239476778279606
        ]
      }
    }
  ]
}